ISS (NAUKA)             
1 49044U 21066A   24333.87528729  .00020789  00000+0  37100-3 0  9998
2 49044  51.6383 219.4832 0006779 279.2376  80.7846 15.50003122189531
BRO-4                   
1 49066U 21073A   24334.12516554  .00166092  00000+0  20661-2 0  9993
2 49066  97.4324  53.4451 0008850  14.3333 345.8172 15.59355892182188
LEDSAT                  
1 49069U 21073D   24334.08815982  .00051314  00000+0  14114-2 0  9994
2 49069  97.4189  45.1428 0015472  59.3152 300.9615 15.36900410181661
STARLINK-3100           
1 49144U 21082Q   24334.05065752  .00000691  00000+0  65693-4 0  9999
2 49144  70.0002  28.4865 0002863 266.6001  93.4831 14.98326505176236
CUTE                    
1 49263U 21088D   24332.70473837  .00057028  00000+0  17844-2 0  9993
2 49263  97.4777  38.7281 0010615 221.4430 138.6008 15.32872283174565
2021-091B               
1 49316U 21091B   24334.13251249  .00009118  00000+0  44639-3 0  9996
2 49316  97.4490 159.2667 0008497 159.1744 200.9838 15.18369564173248
2021-091H               
1 49322U 21091H   24334.16606221  .00076196  00000+0  11445-2 0  9998
2 49322  97.4216 174.1958 0006774 185.3450 174.7732 15.54602185174286
SDGSAT 1                
1 49387U 21100A   24334.04681643  .00009816  00000+0  45610-3 0  9995
2 49387  97.3466  28.2877 0005629 114.7383 245.4439 15.20173790170094
ASTERISC                
1 49395U 21102A   24333.87218219  .00271221  00000+0  36952-2 0  9990
2 49395  97.4000  26.5685 0006556 342.6749  17.4281 15.56581145168572
TEIKYOSAT-4 (OORURI)    
1 49396U 21102B   24333.72003264  .00006314  00000+0  43534-3 0  9991
2 49396  97.4397  12.9904 0014542  76.2067 284.0778 15.06075752167504
Z-SAT                   
1 49399U 21102E   24334.10415580  .00009764  00000+0  57790-3 0  9996
2 49399  97.4103  15.4401 0020545  53.5604 306.7517 15.11452936167879
HIBARI                  
1 49400U 21102F   24333.39952829  .00019718  00000+0  98629-3 0  9997
2 49400  97.4085  17.5723 0016763  40.2572 319.9900 15.17338010167970
KOSEN-1                 
1 49402U 21102H   24334.01710207  .00015856  00000+0  82946-3 0  9995
2 49402  97.4015  17.5143 0018180  35.0861 325.1565 15.15787315168071
GLOBAL-14               
1 49469U 21106A   24334.03419579  .00028443  00000+0  74374-3 0  9994
2 49469  42.0093 351.4131 0001379  54.7812 305.3157 15.38173199171041
GAOFEN-3 02             
1 49495U 21109A   24334.10342149  .00000329  00000+0  11299-3 0  9992
2 49495  98.4132 339.1309 0001072 229.4519 130.6577 14.42214433158865
GLOBAL-12               
1 49772U 21115BA  24331.96296067  .00029652  00000+0  77613-3 0  9997
2 49772  53.2014 204.6731 0002287 206.6194 153.4694 15.38504369168388
GLOBAL-13               
1 49773U 21115BB  24333.36269890  .00039134  00000+0  10212-2 0  9995
2 49773  53.2039 199.3231 0003916 230.4503 129.6157 15.38457172168580
GLOBAL-17               
1 49949U 21120A   24333.87296882  .00032662  00000+0  86115-3 0  9998
2 49949  41.9990 119.3871 0009458 314.7957  45.2113 15.37822412167691
GLOBAL-16               
1 49950U 21120B   24333.78079108  .00039166  00000+0  10313-2 0  9992
2 49950  42.0002 119.5466 0009185 301.7469  58.2475 15.37795822167679
XW-3 (CAS-9)            
1 50466U 21131B   24334.15871486  .00001973  00000+0  63646-3 0  9992
2 50466  98.5222  58.4616 0004034   8.6724 351.4533 14.40296754153745
ION SCV-004             
1 50993U 22002K   24334.06629262  .00011372  00000+0  49595-3 0  9999
2 50993  97.3680  31.4557 0008717 185.4033 174.7111 15.22293735159076
IRIS-A                  
1 51044U 22002BN  24333.44629469  .00068785  00000+0  13798-2 0  9992
2 51044  97.3632  40.6313 0004724 159.4713 200.6727 15.46446982159660
KEPLER-19               
1 51051U 22002BV  24333.64009115  .00100760  00000+0  22653-2 0  9992
2 51051  97.3671  38.4250 0004383 181.3536 178.7701 15.42945905159509
ETV-A1                  
1 51060U 22002CE  24334.11585520  .00018209  00000+0  70474-3 0  9995
2 51060  97.3700  34.0871 0006835 194.4631 165.6413 15.26223857159230
BRO-5                   
1 51061U 22002CF  24334.13582574  .00018068  00000+0  61131-3 0  9997
2 51061  97.3753  36.8281 0006987 189.6530 170.4578 15.30643910159389
VZLUSAT-2               
1 51085U 22002DF  24334.12774952  .00044831  00000+0  11822-2 0  9993
2 51085  97.3665  38.1168 0008281 177.4043 182.7247 15.38325555159524
L-SAR 01A               
1 51284U 22007A   24334.13911201  .00002158  00000+0  23868-3 0  9990
2 51284  97.8093 338.6661 0001611  91.7501 268.3900 14.88407955154428
INSPIRESAT-1            
1 51657U 22013B   24333.46947218  .00031480  00000+0  95304-3 0  9997
2 51657  97.5141 352.2656 0005733 320.5316  39.5508 15.34103637154676
L-SAR 01B               
1 51822U 22018A   24334.17263871  .00002750  00000+0  30237-3 0  9993
2 51822  97.8105 338.6674 0001610  90.1417 269.9984 14.88422337149662
2022-019D               
1 51827U 22019D   24334.15634600  .00029755  00000+0  10290-2 0  9999
2 51827  97.4187  44.7971 0011382  20.7824 339.3877 15.29791209152396
JILIN-1 GAOFEN 03D14    
1 51831U 22019H   24334.16052450  .00035228  00000+0  12562-2 0  9998
2 51831  97.4209  47.0631 0011928  11.3719 348.7788 15.28747445152544
2022-019J               
1 51832U 22019J   24334.15948094  .00005285  00000+0  27425-3 0  9991
2 51832  97.4167  39.4123 0010302  49.6498 310.5634 15.16512742152041
JILIN-1 GAOFEN 03D16    
1 51834U 22019L   24334.13260521  .00037061  00000+0  12910-2 0  9992
2 51834  97.4183  47.2478 0008539  18.0144 342.1397 15.29534354152558
JILIN-1 GAOFEN 03D11    
1 51835U 22019M   24334.03681114  .00036472  00000+0  12866-2 0  9992
2 51835  97.4215  47.1354 0008783  21.2664 338.8939 15.29124634152539
JILIN-1 GAOFEN 03D17    
1 51838U 22019Q   24334.11880827  .00056731  00000+0  13769-2 0  9999
2 51838  97.4191  49.4842 0008105  12.7586 347.3864 15.40806559152705
JILIN-1 GAOFEN 03D15    
1 51839U 22019R   24334.16061232  .00034335  00000+0  12499-2 0  9991
2 51839  97.4191  47.0100 0005990  38.6115 321.5551 15.28125660152554
JILIN-1 GAOFEN 03D10    
1 51840U 22019S   24334.11563971  .00036162  00000+0  12679-2 0  9995
2 51840  97.4193  47.3709 0000756 327.8195  32.2999 15.29360696152566
JILIN-1 GAOFEN 03D12    
1 51841U 22019T   24334.10766170  .00034783  00000+0  12531-2 0  9995
2 51841  97.4177  46.9375 0005348  12.0116 348.1251 15.28467818152542
JILIN-1 GAOFEN 03D18    
1 51844U 22019W   24334.17952385  .00034220  00000+0  12235-2 0  9997
2 51844  97.4174  46.7523 0012158  13.5351 346.6212 15.28664150152446
2022-023F               
1 51951U 22023F   24334.17183742  .00051050  00000+0  22315-2 0  9994
2 51951  63.5076  32.9457 0086135 342.8460  16.9745 15.18432369151922
CZ-4C R/B               
1 52085U 22027B   24333.85569330 -.00000033  00000+0  68021-4 0  9994
2 52085  63.3950 123.4823 0182400  25.6148 335.3787 13.65421688134842
MERIDIAN 10             
1 52145U 22030A   24333.18593846  .00000248  00000+0  00000+0 0  9995
2 52145  62.6544 200.4001 6780623 273.6940  17.4482  2.00603664 19672
OMNI-L1                 
1 52157U 22033A   24333.64829235  .00002900  00000+0  40047-3 0  9992
2 52157  97.8877  52.7147 0005085 335.1093  24.9872 14.78883215143744
ENMAP                   
1 52159U 22033C   24333.86143535  .00001986  00000+0  30279-3 0  9999
2 52159  97.9784  53.2209 0001443  82.7094 277.4279 14.74996581143326
ARCSAT-1                
1 52161U 22033E   24333.47235628  .00019548  00000+0  52887-3 0  9996
2 52161  97.3127  52.0320 0008097  92.8325 267.3847 15.37707011148317
BRO-7                   
1 52174U 22033T   24334.12403042  .00087057  00000+0  13368-2 0  9990
2 52174  97.3158  59.4970 0007463  45.2631 314.9229 15.53947492148865
GLOBAL-18               
1 52196U 22034B   24333.52315656  .00044303  00000+0  11319-2 0  9992
2 52196  52.9907  54.2087 0003548 308.5155  51.5529 15.39046088149803
GLOBAL-20               
1 52197U 22034C   24334.17843731  .00097713  00000+0  12147-2 0  9998
2 52197  52.9866  23.8040 0012082 309.9166  50.0782 15.59129951150281
GAOFEN-3 03             
1 52200U 22035A   24334.14577277  .00000333  00000+0  11428-3 0  9994
2 52200  98.4121 339.7773 0001593  93.2306 266.9066 14.42209984139412
DAQI 1                  
1 52257U 22039A   24334.14841397  .00001251  00000+0  28479-3 0  9991
2 52257  98.2265 269.7375 0002690 161.0764 199.0535 14.57604315139625
JILIN-1 GAOFEN 4A       
1 52388U 22046A   24334.19066185  .00045797  00000+0  15053-2 0  9999
2 52388  97.4979  61.5218 0011089 236.1661 123.8525 15.31344608142907
JILIN-1 GAOFEN 3D05     
1 52390U 22046C   24334.17066390  .00037347  00000+0  13788-2 0  9993
2 52390  97.4942  62.8001 0000380  28.7268 331.3992 15.27658469143020
JILIN-1 GAOFEN 3D07     
1 52392U 22046E   24334.13337533  .00042536  00000+0  14287-2 0  9992
2 52392  97.5021  64.2502 0001855  48.2609 311.8790 15.30719544143066
BRO-6                   
1 52422U 22047AE  24334.14340912  .00019746  00000+0  69839-3 0  9994
2 52422  97.3851  52.1182 0005078 308.5518  51.5267 15.29192037144261
JILIN-1 GAOFEN 3D27     
1 52444U 22048B   24334.11380211  .00033800  00000+0  13083-2 0  9998
2 52444  97.5881  54.1651 0007360 263.1894  96.8506 15.26089200142307
JILIN-1 GAOFEN 3D28     
1 52445U 22048C   24334.15164850  .00033820  00000+0  13068-2 0  9997
2 52445  97.5851  53.9467 0008307 268.8800  91.1486 15.26140446142314
PLANETUM1               
1 52738U 22057G   24333.84005870  .06069233  25720-5  13242-2 0  9992
2 52738  97.5537 110.7236 0009881 292.3042  67.7204 16.30442171140236
CONNECTA T1.1           
1 52739U 22057H   24333.33735692  .00042984  00000+0  12264-2 0  9998
2 52739  97.5943  98.2937 0006582 307.2234  52.8408 15.35899397139307
VIGORIDE-3              
1 52760U 22057AE  24333.60904835  .00008422  00000+0  39014-3 0  9991
2 52760  97.5933  93.4269 0009043 304.9384  55.1001 15.20319885139038
